*******************************************************************************
Ephemeris / WWW_USER Mon Mar 10 06:57:06 2025 Pasadena, USA      / Horizons    
*******************************************************************************
Target body name: (2018 WD2)                      {source: JPL#7}
Center body name: Earth (399)                     {source: DE441}
Center-site name: Mauna Kea
*******************************************************************************
Start time      : A.D. 2018-Oct-15 04:08:00.0000 UT      
Stop  time      : A.D. 2018-Oct-15 16:07:00.0000 UT      
Step-size       : 1 minutes
*******************************************************************************
Target pole/equ : undefined
Target radii    : undefined                                                    
Center geodetic : 204.5278, 19.8260847, 4.21024   {E-lon(deg),Lat(deg),Alt(km)}
Center cylindric: 204.5278, 6006.35451, 2151.0229 {E-lon(deg),Dxy(km),Dz(km)}
Center pole/equ : ITRF93                          {East-longitude positive}
Center radii    : 6378.137, 6378.137, 6356.752 km {Equator_a, b, pole_c}       
Target primary  : Sun
Vis. interferer : MOON (R_eq= 1737.400) km        {source: DE441}
Rel. light bend : Sun                             {source: DE441}
Rel. lght bnd GM: 1.3271E+11 km^3/s^2                                          
Small-body perts: Yes                             {source: SB441-N16}
Atmos refraction: NO (AIRLESS)
RA format       : HMS
Time format     : CAL 
Calendar mode   : Mixed Julian/Gregorian
RTS-only print  : NO       
EOP file        : eop.250307.p250603                                           
EOP coverage    : DATA-BASED 1962-JAN-20 TO 2025-MAR-07. PREDICTS-> 2025-JUN-02
Units conversion: 1 au= 149597870.700 km, c= 299792.458 km/s, 1 day= 86400.0 s 
Table cut-offs 1: Elevation (-90.0deg=NO ),Airmass (>38.000=NO), Daylight (YES)
Table cut-offs 2: Solar elongation (  0.0,180.0=NO ),Local Hour Angle( 0.0=NO )
Table cut-offs 3: RA/DEC angular rate (     0.0=NO )                           
*******************************************************************************
Initial IAU76/J2000 heliocentric ecliptic osculating elements (au, days, deg.):
  EPOCH=  2458442.5 ! 2018-Nov-20.00 (TDB)         Residual RMS= .32422        
   EC= .524986067713519    QR= .9778174985080528   TP= 2458471.2675125618      
   OM= 251.0855257113189   W=  198.8561547827716   IN= 2.860917524648221       
  Equivalent ICRF heliocentric cartesian coordinates (au, au/d):
   X= 5.933978759455335E-01  Y= 7.796199626272187E-01  Z= 3.534710331364960E-01
  VX=-1.894544763705440E-02 VY= 7.774789113426014E-03 VZ= 2.252803318104249E-03
Asteroid physical parameters (km, seconds, rotational period in hours):        
   GM= n.a.                RAD= n.a.               ROTPER= n.a.                
   H= 26.2                 G= .150                 B-V= n.a.                   
                           ALBEDO= n.a.            STYP= n.a.                  
*******************************************************************************
 Date__(UT)__HR:MN     R.A._________(ICRF)_________DEC
******************************************************
$$SOE
 2018-Oct-15 12:20     01 05 35.214374 +18 36 21.14890
 2018-Oct-15 12:21     01 05 35.186139 +18 36 21.26457
 2018-Oct-15 12:22     01 05 35.157929 +18 36 21.38006
 2018-Oct-15 12:23     01 05 35.129745 +18 36 21.49540
 2018-Oct-15 12:24     01 05 35.101588 +18 36 21.61056
 2018-Oct-15 12:25     01 05 35.073457 +18 36 21.72556
 2018-Oct-15 12:26     01 05 35.045352 +18 36 21.84040
 2018-Oct-15 12:27     01 05 35.017274 +18 36 21.95508
 2018-Oct-15 12:28     01 05 34.989223 +18 36 22.06959
 2018-Oct-15 12:29     01 05 34.961199 +18 36 22.18394
 2018-Oct-15 12:30     01 05 34.933202 +18 36 22.29813
 2018-Oct-15 12:31     01 05 34.905233 +18 36 22.41215
 2018-Oct-15 12:32     01 05 34.877291 +18 36 22.52602
 2018-Oct-15 12:33     01 05 34.849376 +18 36 22.63972
 2018-Oct-15 12:34     01 05 34.821489 +18 36 22.75327
 2018-Oct-15 12:35     01 05 34.793630 +18 36 22.86665
 2018-Oct-15 12:36     01 05 34.765799 +18 36 22.97988
 2018-Oct-15 12:37     01 05 34.737997 +18 36 23.09295
 2018-Oct-15 12:38     01 05 34.710222 +18 36 23.20587
 2018-Oct-15 12:39     01 05 34.682476 +18 36 23.31862
 2018-Oct-15 12:40     01 05 34.654759 +18 36 23.43122
 2018-Oct-15 12:41     01 05 34.627071 +18 36 23.54367
 2018-Oct-15 12:42     01 05 34.599411 +18 36 23.65596
 2018-Oct-15 12:43     01 05 34.571781 +18 36 23.76809
 2018-Oct-15 12:44     01 05 34.544179 +18 36 23.88007
 2018-Oct-15 12:45     01 05 34.516607 +18 36 23.99190
 2018-Oct-15 12:46     01 05 34.489065 +18 36 24.10357
 2018-Oct-15 12:47     01 05 34.461552 +18 36 24.21510
 2018-Oct-15 12:48     01 05 34.434069 +18 36 24.32647
 2018-Oct-15 12:49     01 05 34.406616 +18 36 24.43769
 2018-Oct-15 12:50     01 05 34.379193 +18 36 24.54876
 2018-Oct-15 12:51     01 05 34.351800 +18 36 24.65968
 2018-Oct-15 12:52     01 05 34.324438 +18 36 24.77045
 2018-Oct-15 12:53     01 05 34.297106 +18 36 24.88107
 2018-Oct-15 12:54     01 05 34.269804 +18 36 24.99155
 2018-Oct-15 12:55     01 05 34.242534 +18 36 25.10188
 2018-Oct-15 12:56     01 05 34.215294 +18 36 25.21206
 2018-Oct-15 12:57     01 05 34.188085 +18 36 25.32209
 2018-Oct-15 12:58     01 05 34.160908 +18 36 25.43198
 2018-Oct-15 12:59     01 05 34.133761 +18 36 25.54173
 2018-Oct-15 13:00     01 05 34.106646 +18 36 25.65133
 2018-Oct-15 13:01     01 05 34.079563 +18 36 25.76079
 2018-Oct-15 13:02     01 05 34.052512 +18 36 25.87010
 2018-Oct-15 13:03     01 05 34.025492 +18 36 25.97928
 2018-Oct-15 13:04     01 05 33.998504 +18 36 26.08831
 2018-Oct-15 13:05     01 05 33.971549 +18 36 26.19720
 2018-Oct-15 13:06     01 05 33.944625 +18 36 26.30595
 2018-Oct-15 13:07     01 05 33.917734 +18 36 26.41456
 2018-Oct-15 13:08     01 05 33.890875 +18 36 26.52303
 2018-Oct-15 13:09     01 05 33.864050 +18 36 26.63137
 2018-Oct-15 13:10     01 05 33.837256 +18 36 26.73956
 2018-Oct-15 13:11     01 05 33.810496 +18 36 26.84762
 2018-Oct-15 13:12     01 05 33.783769 +18 36 26.95554
 2018-Oct-15 13:13     01 05 33.757075 +18 36 27.06333
 2018-Oct-15 13:14     01 05 33.730414 +18 36 27.17098
 2018-Oct-15 13:15     01 05 33.703786 +18 36 27.27850
 2018-Oct-15 13:16     01 05 33.677192 +18 36 27.38589
 2018-Oct-15 13:17     01 05 33.650632 +18 36 27.49314
 2018-Oct-15 13:18     01 05 33.624105 +18 36 27.60026
 2018-Oct-15 13:19     01 05 33.597612 +18 36 27.70725
 2018-Oct-15 13:20     01 05 33.571154 +18 36 27.81410
 2018-Oct-15 13:21     01 05 33.544729 +18 36 27.92083
 2018-Oct-15 13:22     01 05 33.518339 +18 36 28.02743
 2018-Oct-15 13:23     01 05 33.491983 +18 36 28.13390
 2018-Oct-15 13:24     01 05 33.465661 +18 36 28.24024
 2018-Oct-15 13:25     01 05 33.439374 +18 36 28.34645
 2018-Oct-15 13:26     01 05 33.413122 +18 36 28.45254
 2018-Oct-15 13:27     01 05 33.386904 +18 36 28.55850
 2018-Oct-15 13:28     01 05 33.360722 +18 36 28.66433
 2018-Oct-15 13:29     01 05 33.334575 +18 36 28.77004
 2018-Oct-15 13:30     01 05 33.308462 +18 36 28.87563
 2018-Oct-15 13:31     01 05 33.282386 +18 36 28.98109
 2018-Oct-15 13:32     01 05 33.256344 +18 36 29.08643
 2018-Oct-15 13:33     01 05 33.230338 +18 36 29.19165
 2018-Oct-15 13:34     01 05 33.204368 +18 36 29.29675
 2018-Oct-15 13:35     01 05 33.178433 +18 36 29.40173
 2018-Oct-15 13:36     01 05 33.152535 +18 36 29.50659
 2018-Oct-15 13:37     01 05 33.126672 +18 36 29.61133
 2018-Oct-15 13:38     01 05 33.100845 +18 36 29.71595
 2018-Oct-15 13:39     01 05 33.075055 +18 36 29.82045
 2018-Oct-15 13:40     01 05 33.049301 +18 36 29.92484
 2018-Oct-15 13:41     01 05 33.023583 +18 36 30.02911
 2018-Oct-15 13:42     01 05 32.997902 +18 36 30.13327
 2018-Oct-15 13:43     01 05 32.972258 +18 36 30.23731
 2018-Oct-15 13:44     01 05 32.946650 +18 36 30.34124
 2018-Oct-15 13:45     01 05 32.921079 +18 36 30.44505
 2018-Oct-15 13:46     01 05 32.895545 +18 36 30.54875
 2018-Oct-15 13:47     01 05 32.870048 +18 36 30.65234
 2018-Oct-15 13:48     01 05 32.844588 +18 36 30.75582
 2018-Oct-15 13:49     01 05 32.819165 +18 36 30.85920
 2018-Oct-15 13:50     01 05 32.793780 +18 36 30.96246
 2018-Oct-15 13:51     01 05 32.768432 +18 36 31.06561
 2018-Oct-15 13:52     01 05 32.743122 +18 36 31.16865
 2018-Oct-15 13:53     01 05 32.717849 +18 36 31.27159
 2018-Oct-15 13:54     01 05 32.692615 +18 36 31.37442
 2018-Oct-15 13:55     01 05 32.667418 +18 36 31.47715
 2018-Oct-15 13:56     01 05 32.642259 +18 36 31.57977
 2018-Oct-15 13:57     01 05 32.617138 +18 36 31.68229
 2018-Oct-15 13:58     01 05 32.592055 +18 36 31.78470
 2018-Oct-15 13:59     01 05 32.567010 +18 36 31.88702
 2018-Oct-15 14:00     01 05 32.542004 +18 36 31.98923
 2018-Oct-15 14:01     01 05 32.517036 +18 36 32.09134
 2018-Oct-15 14:02     01 05 32.492107 +18 36 32.19335
 2018-Oct-15 14:03     01 05 32.467216 +18 36 32.29526
 2018-Oct-15 14:04     01 05 32.442364 +18 36 32.39707
 2018-Oct-15 14:05     01 05 32.417550 +18 36 32.49878
 2018-Oct-15 14:06     01 05 32.392776 +18 36 32.60040
 2018-Oct-15 14:07     01 05 32.368041 +18 36 32.70192
 2018-Oct-15 14:08     01 05 32.343344 +18 36 32.80334
 2018-Oct-15 14:09     01 05 32.318687 +18 36 32.90468
 2018-Oct-15 14:10     01 05 32.294069 +18 36 33.00591
 2018-Oct-15 14:11     01 05 32.269490 +18 36 33.10706
 2018-Oct-15 14:12     01 05 32.244951 +18 36 33.20811
 2018-Oct-15 14:13     01 05 32.220451 +18 36 33.30907
 2018-Oct-15 14:14     01 05 32.195991 +18 36 33.40994
 2018-Oct-15 14:15     01 05 32.171570 +18 36 33.51072
 2018-Oct-15 14:16     01 05 32.147189 +18 36 33.61141
 2018-Oct-15 14:17     01 05 32.122848 +18 36 33.71201
 2018-Oct-15 14:18     01 05 32.098547 +18 36 33.81253
 2018-Oct-15 14:19     01 05 32.074286 +18 36 33.91296
 2018-Oct-15 14:20     01 05 32.050065 +18 36 34.01330
 2018-Oct-15 14:21     01 05 32.025884 +18 36 34.11356
 2018-Oct-15 14:22     01 05 32.001743 +18 36 34.21373
